COSMO-SKYMED 4          
1 37216U 10060A   24338.49877418  .00001688  00000+0  21855-3 0  9990
2 37216  97.8863 159.2096 0001506  88.0705 272.0681 14.82164807761577
O/OREOS (USA 219)       
1 37224U 10062C   24337.24329664  .00007557  00000+0  79659-3 0  9994
2 37224  71.9729 269.6167 0013440  50.0068 310.2278 14.89521596 32832
ELEKTRO-L 1 (GOMS 2)    
1 37344U 11001A   24338.01645413 -.00000036  00000+0  00000+0 0  9996
2 37344   8.4022  60.0119 0003745  29.9062 342.8416  1.00250471 50848
RESOURCESAT-2           
1 37387U 11015A   24338.49252186  .00000507  00000+0  25020-3 0  9996
2 37387  98.5575  39.3637 0004030 359.4183   0.6989 14.21707120707045
YOUTHSAT                
1 37388U 11015B   24338.45895247  .00000696  00000+0  31354-3 0  9990
2 37388  98.3102 329.0257 0014359 184.6298 293.4217 14.25181134708285
APRIZESAT 6             
1 37793U 11044F   24338.15174512  .00002355  00000+0  34962-3 0  9996
2 37793  98.2788 225.5387 0045833  78.8033  75.9087 14.75335685714529
JUGNU                   
1 37839U 11058B   24337.70478818  .00000860  00000+0  31106-3 0  9994
2 37839  19.9597 118.8655 0018761 356.8588  31.7495 14.13438097679485
SRMSAT                  
1 37841U 11058D   24337.90664274  .00000749  00000+0  26380-3 0  9996
2 37841  19.9707 216.1849 0011839 149.6159 311.9085 14.11300496678429
SUOMI NPP               
1 37849U 11061A   24338.48742444  .00000326  00000+0  17533-3 0  9999
2 37849  98.7394 274.0262 0002127 104.5767 255.5645 14.19510426678880
YAOGAN-12               
1 37875U 11066B   24338.51366657  .00017875  00000+0  73990-3 0  9991
2 37875  97.1967  31.4164 0002665  76.0195 284.1339 15.23988308727202
ZIYUAN 3-1 (ZY 3-1)     
1 38046U 12001A   24338.45129004  .00050696  00000+0  11432-2 0  9998
2 38046  97.2195  37.5911 0002726 236.4969 123.6019 15.43078501716929
BEIDOU-2 M4             
1 38251U 12018B   24337.46620044 -.00000056  00000+0  00000+0 0  9996
2 38251  56.1252 322.9903 0016300 270.5564  89.2571  1.86232067 85830
ARIRANG-3 (KOMPSAT-3)   
1 38338U 12025B   24338.46779309  .00001925  00000+0  38047-3 0  9991
2 38338  98.2843 285.1602 0011428  72.2626 287.9822 14.63516464669498
HORYU-2                 
1 38340U 12025D   24338.28674398  .00009442  00000+0  11148-2 0  9990
2 38340  98.1707  81.7900 0009066 206.6490 153.4259 14.84890578675703
CSSWE                   
1 38761U 12048D   24337.21534568  .00022781  00000+0  10187-2 0  9991
2 38761  64.6648 153.4368 0120807 323.7856  35.5129 15.14917441 30479
CP5                     
1 38763U 12048F   24338.28565568  .00017754  00000+0  91250-3 0  9990
2 38763  64.6565 181.1579 0129435 330.0853  29.2912 15.09519183 31572
METOP-B                 
1 38771U 12049A   24338.38480983  .00000443  00000+0  22154-3 0  9992
2 38771  98.6062  31.6265 0000862  81.3854 278.7421 14.21601480633580
SJ-9A                   
1 38860U 12056A   24338.45976731  .00003740  00000+0  46136-3 0  9997
2 38860  97.6072 322.8586 0025832 304.5556  55.3221 14.83221894655602
COSMOS 2484             
1 39059U 13001C   24337.93834705  .00000072  00000+0  44437-3 0  9992
2 39059  82.5031 210.8626 0025952 176.6772 183.4485 12.42911509538835
SARAL                   
1 39086U 13009A   24338.18191784  .00000424  00000+0  17229-3 0  9991
2 39086  98.5485 161.0091 0002628 126.0253 234.1175 14.32597529615273
AAUSAT 3                
1 39087U 13009B   24338.47315400  .00002267  00000+0  75395-3 0  9992
2 39087  98.3632 164.6344 0012733  94.9023 265.3618 14.38571964616834
STRAND-1                
1 39090U 13009E   24338.49368613  .00001109  00000+0  39223-3 0  9996
2 39090  98.3769 162.1785 0009824 104.8752 255.3523 14.36494979616560
BRITE-AUSTRIA           
1 39091U 13009F   24338.50847673  .00000748  00000+0  27145-3 0  9995
2 39091  98.3819 161.4669 0011325 111.9334 248.3057 14.36092620616576
UNIBRITE                
1 39092U 13009G   24337.77387334  .00000736  00000+0  26789-3 0  9997
2 39092  98.3860 160.7202 0010263 110.0603 250.1689 14.35963708616404
AIST-2 (RS-43)          
1 39133U 13015D   24338.38506960  .00013491  00000+0  68273-3 0  9992
2 39133  64.8718 279.0666 0024261 300.9583  58.9159 15.17017898638993
GAOFEN-1                
1 39150U 13018A   24338.48468475  .00002290  00000+0  33495-3 0  9996
2 39150  97.9730  48.8909 0018120 275.6735  84.2409 14.76545278625548
NEE-01 PEGASO           
1 39151U 13018B   24338.38531275  .00007832  00000+0  84783-3 0  9998
2 39151  98.0533  97.6329 0013779 204.4985 155.5578 14.88465870627129
TURKSAT-3USAT           
1 39152U 13018C   24338.20143929  .00008668  00000+0  89569-3 0  9990
2 39152  97.8225  61.8905 0014131 160.3814 199.7950 14.90299615627356
CUBEBUG-1 (CAPITAN BETO)
1 39153U 13018D   24338.29838371  .00010464  00000+0  10678-2 0  9993
2 39153  98.0955 107.3195 0013381 195.8326 164.2475 14.90766515627373
PROBA-V                 
1 39159U 13021A   24338.49381478  .00000303  00000+0  15144-3 0  9991
2 39159  98.3116 335.6236 0003878 352.4834   7.6287 14.23390893601346
ESTCUBE 1               
1 39161U 13021C   24337.86798310  .00004987  00000+0  69337-3 0  9996
2 39161  97.8089  39.2057 0009607  49.5048 310.6999 14.78240904622030
ARIRANG-5 (KOMPSAT-5)   
1 39227U 13042A   24338.50046530  .00004185  00000+0  30345-3 0  9991
2 39227  97.6158 162.0427 0001095 221.9111 138.2032 15.04469133619613
GONETS-M 5              
1 39249U 13048A   24338.44703619  .00000035  00000+0  18389-3 0  9996
2 39249  82.4814 332.9310 0016695   0.5967 359.5130 12.42907472509379
GONETS-M 7              
1 39251U 13048C   24337.93955193  .00000037  00000+0  19447-3 0  9996
2 39251  82.4883 335.8774 0017260   2.3086 357.8071 12.42886593509112
FENGYUN 3C              
1 39260U 13052A   24338.50904724  .00000349  00000+0  19613-3 0  9990
2 39260  98.4394 329.2413 0010730 192.9651 167.1250 14.16357738579296
CASSIOPE                
1 39265U 13055A   24338.13292785  .00030240  00000+0  55079-3 0  9993
2 39265  80.9476   6.0099 0448601  97.6381 267.6003 14.83137460583290
APRIZESAT 7             
1 39416U 13066A   24337.82738524  .00004615  00000+0  49198-3 0  9996
2 39416  97.6960 291.8075 0035887 271.3602  88.3504 14.88884516597615
ZACUBE-1 (TSHEPISOSAT)  
1 39417U 13066B   24338.11282099  .00011378  00000+0  10735-2 0  9999
2 39417  97.7575 290.8904 0046137 323.1779  36.6275 14.93114108596754
APRIZESAT 8             
1 39425U 13066K   24338.43280704  .00003834  00000+0  44238-3 0  9998
2 39425  97.7531 286.0297 0047277 332.1487  27.7198 14.85419349596626
CINEMA-3 (KHUSAT-2)     
1 39426U 13066L   24338.02113829  .00003995  00000+0  55628-3 0  9990
2 39426  97.8458 254.6606 0093379 226.9546 132.3817 14.75342043591880
TRITON-1                
1 39427U 13066M   24338.47574959  .00007486  00000+0  99338-3 0  9990
2 39427  97.8403 251.2433 0096311 255.9973 103.0515 14.76878498591369
DELFI-N3XT              
1 39428U 13066N   24338.37464761  .00017475  00000+0  19768-2 0  9996
2 39428  97.8367 252.7546 0090141 258.5106 100.5975 14.83568668591301
GOMX-1                  
1 39430U 13066Q   24338.43260828  .00004655  00000+0  74478-3 0  9990
2 39430  97.7043 202.5280 0137376  73.9327 287.6955 14.66060845587820
BRITE-PL1 (LEM)         
1 39431U 13066R   24337.83818083  .00001736  00000+0  36369-3 0  9990
2 39431  97.7262 122.0337 0193800 317.5230  41.1105 14.49846625582742
ICUBE-1                 
1 39432U 13066S   24337.92300294  .00017030  00000+0  11009-2 0  9998
2 39432  97.5188 314.9348 0026371 114.2570 246.1418 15.07983835600520
HUMSAT-D                
1 39433U 13066T   24338.49133679  .00039383  00000+0  18249-2 0  9991
2 39433  97.4982 327.2730 0018463  64.7101 295.6044 15.19819698601541
VELOX-PII               
1 39438U 13066Y   24338.11108030  .00008783  00000+0  94700-3 0  9995
2 39438  97.8089 282.4632 0060614  38.1962 322.3526 14.87287034595380
FIRST-MOVE              
1 39439U 13066Z   24338.43310586  .00044658  00000+0  25741-2 0  9991
2 39439  97.7305 301.9617 0031333 284.3779  75.3973 15.11816192597427
CUBEBUG-2 (LO-74)       
1 39440U 13066AA  24338.11890309  .00009819  00000+0  10632-2 0  9997
2 39440  97.8310 278.6362 0068009  80.7666 280.1234 14.86731416594605
NEE-02 KRYSAOR          
1 39441U 13066AB  24337.72476776  .00005625  00000+0  67691-3 0  9991
2 39441  97.8396 273.3439 0073183 106.5659 254.3608 14.82371717592881
FUNCUBE-1 (AO-73)       
1 39444U 13066AE  24337.68932755  .00016259  00000+0  13823-2 0  9995
2 39444  97.7411 294.1590 0041892 301.2343  58.4777 14.97236825595278
HINCUBE                 
1 39445U 13066AF  24338.45561665  .00016088  00000+0  13842-2 0  9991
2 39445  97.7444 294.4870 0042316 302.8683  56.8469 14.96762541595486
UWE-3                   
1 39446U 13066AG  24337.60781751  .00012274  00000+0  12498-2 0  9997
2 39446  97.8027 284.2884 0057994  26.7071 333.7112 14.89602130593746
SMDC ONE 2.4            
1 39469U 13072H   24337.35481615  .00025081  00000+0  13413-2 0  9995
2 39469 120.5004  11.8519 0202896 129.8320 232.0786 14.99067119 33014
CP8 (IPEX)              
1 39471U 13072K   24337.76807895  .00017178  00000+0  10301-2 0  9996
2 39471 120.4752 345.9874 0213863 124.7030 237.4376 14.94046052 30906
COSMOS 2488             
1 39483U 13076A   24338.13056103  .00000035  00000+0  17950-3 0  9995
2 39483  82.4824 158.3452 0018791 236.8363 123.0914 12.42897891496383
COSMOS 2489             
1 39484U 13076B   24338.50712927  .00000041  00000+0  22693-3 0  9997
2 39484  82.4862 159.3197 0020853 237.4774 122.4291 12.42891886496499
COSMOS 2490             
1 39485U 13076C   24337.91374855  .00000041  00000+0  22667-3 0  9997
2 39485  82.4807 157.9999 0020650 253.9813 105.8992 12.42905083496156
AIST-1 (RS-41)          
1 39492U 13078C   24338.41235486  .00005202  00000+0  49488-3 0  9993
2 39492  82.4172  93.0381 0017680 358.1196   1.9954 14.93151128593800
